ONEWEB-0230             
1 48769U 21045C   23331.32162558  .00000150  00000+0  36462-3 0  9999
2 48769  87.9006  84.9641 0001297  90.7794 269.3485 13.15546425122012
ONEWEB-0237             
1 48770U 21045D   23331.38657294  .00000185  00000+0  45728-3 0  9996
2 48770  87.9003  84.8710 0001163 113.2541 246.8712 13.15548653121747
ONEWEB-0235             
1 48771U 21045E   23331.36120541 -.00000333  00000+0 -91990-3 0  9994
2 48771  87.8992  84.9023 0000758 117.7703 242.3504 13.15547571121737
ONEWEB-0242             
1 48772U 21045F   23331.35487335 -.00000024  00000+0 -99034-4 0  9996
2 48772  87.8990  84.8930 0001301  95.6184 264.5095 13.15551111121774
ONEWEB-0241             
1 48773U 21045G   23331.34227099 -.00009451  00000+0 -25189-1 0  9995
2 48773  87.9003  84.9239 0001483 103.7686 256.3609 13.15482048121685
ONEWEB-0243             
1 48774U 21045H   23331.37388292  .00000097  00000+0  22431-3 0  9996
2 48774  87.9004  84.8751 0001079 102.2628 257.8624 13.15552453121711
ONEWEB-0222             
1 48775U 21045J   23331.36440303  .00000009  00000+0 -10085-4 0  9995
2 48775  87.8993  84.9058 0001347 113.8936 246.2336 13.15548595121755
ONEWEB-0244             
1 48776U 21045K   23331.38342016  .00001006  00000+0  26389-2 0  9999
2 48776  87.8992  84.8847 0001165 113.0162 247.1092 13.15543310122324
